STARLINK-4143           
1 53029U 22076AV  26169.78094494  .00000466  00000+0  47415-4 0  9995
2 53029  53.1596 340.1962 0001107  93.1868 266.9250 15.08818975218383
STARLINK-4160           
1 53030U 22076AW  26170.00002315  .00056625  00000+0  30251-2 0  9991
2 53030  53.1589 349.3388 0001170 135.6429 155.1298 15.14584635  5807
STARLINK-4137           
1 53031U 22076AX  26169.76990282  .00000528  00000+0  51287-4 0  9997
2 53031  53.1611 340.2475 0001154  71.3083 288.8034 15.08837569218386
STARLINK-4115           
1 53032U 22076AY  26169.79718286  .00121631  00000+0  73215-2 0  9995
2 53032  53.1598 350.1127 0001368 107.3601 252.7541 15.09865257218253
STARLINK-4167           
1 53033U 22076AZ  26169.77357806  .00000198  00000+0  30538-4 0  9998
2 53033  53.1610 340.2289 0001090  85.6337 274.4779 15.08830618218384
STARLINK-4151           
1 53034U 22076BA  26169.78190029  .00000206  00000+0  31063-4 0  9996
2 53034  53.1609 340.2412 0001195  90.3131 269.7998 15.08833194218384
STARLINK-4157           
1 53035U 22076BB  26169.76622155 -.00000413  00000+0 -78349-5 0  9996
2 53035  53.1607 340.2633 0001343  85.6565 274.4580 15.08831999218382
STARLINK-4155           
1 53036U 22076BC  26169.76253416 -.00001577  00000+0 -81039-4 0  9998
2 53036  53.1602 340.2773 0001226  88.5627 271.5505 15.08828887218381
STARLINK-4153           
1 53037U 22076BD  26169.89133289  .00000236  00000+0  32943-4 0  9997
2 53037  53.1592 339.7001 0001442  92.2840 267.8317 15.08834954218400
STARLINK-4156           
1 53038U 22076BE  26169.75517120  .00000369  00000+0  41311-4 0  9999
2 53038  53.1607 340.3125 0001282  90.8226 269.2912 15.08834552218385
STARLINK-4362           
1 53043U 22077A   26169.46187725 -.00000958  00000+0 -62450-4 0  9991
2 53043  97.3475 348.3436 0002249 103.7543 256.3935 15.05657791216078
STARLINK-4350           
1 53045U 22077C   26169.94782340 -.00000056  00000+0  73642-7 0  9996
2 53045  97.3452 349.9664 0001377 106.5994 253.5385 15.05651663216224
STARLINK-4331           
1 53046U 22077D   26169.77337303 -.00000570  00000+0 -35544-4 0  9991
2 53046  97.3490 349.8967 0001610  86.0671 274.0741 15.05662562216208
STARLINK-4352           
1 53047U 22077E   26169.76094146 -.00001997  00000+0 -13441-3 0  9991
2 53047  97.3452 348.6882 0001720 109.0962 251.0452 15.05662919216122
STARLINK-4355           
1 53048U 22077F   26169.93397998  .00000060  00000+0  81011-5 0  9990
2 53048  97.3441 349.9823 0000991 101.7174 258.4165 15.05654924216212
STARLINK-4345           
1 53049U 22077G   26169.90494269 -.00002010  00000+0 -13538-3 0  9993
2 53049  97.3441 348.7918 0001416  92.6309 267.5080 15.05654715216132
STARLINK-4343           
1 53050U 22077H   26169.95614555  .00000298  00000+0  24613-4 0  9993
2 53050  97.3450 349.9470 0001360  96.4672 263.6710 15.05651731216214
STARLINK-4336           
1 53051U 22077J   26169.91878595  .00000957  00000+0  70245-4 0  9990
2 53051  97.3473 348.7656 0001753  75.4069 284.7353 15.05663193216139
STARLINK-4341           
1 53052U 22077K   26169.77478271 -.00000692  00000+0 -44001-4 0  9991
2 53052  97.3507 348.6656 0001338 108.7579 251.3794 15.05657971216116
STARLINK-4337           
1 53053U 22077L   26169.78308885  .00001741  00000+0  12455-3 0  9997
2 53053  97.3485 348.6344 0002461  86.0085 274.1424 15.05655473216112
STARLINK-4339           
1 53054U 22077M   26169.45492588 -.00000857  00000+0 -55426-4 0  9991
2 53054  97.3475 349.5452 0001421  86.5121 273.6269 15.05662501216147
STARLINK-4338           
1 53055U 22077N   26169.95058821 -.00000017  00000+0  27515-5 0  9991
2 53055  97.3456 349.9287 0001021  88.1154 272.0190 15.05653219216217
STARLINK-4314           
1 53056U 22077P   26169.93674708 -.00000111  00000+0 -37261-5 0  9993
2 53056  97.3456 349.9562 0001769 116.5570 243.5839 15.05656172216215
STARLINK-4252           
1 53057U 22077Q   26169.96168633  .00000145  00000+0  13979-4 0  9996
2 53057  97.3443 350.0590 0002105 105.2917 254.8544 15.05649151216229
STARLINK-4317           
1 53058U 22077R   26169.45909189 -.00003476  00000+0 -23676-3 0  9996
2 53058  97.3473 348.4552 0001633  78.5439 281.5972 15.05701974216086
STARLINK-4320           
1 53059U 22077S   26169.75540380 -.00000805  00000+0 -51860-4 0  9994
2 53059  97.3462 348.6479 0001518 128.2850 231.8514 15.05652149216110
STARLINK-4305           
1 53060U 22077T   26169.78031727 -.00000929  00000+0 -60419-4 0  9996
2 53060  97.3468 348.6283 0001492  81.1953 278.9444 15.05664313216113
STARLINK-4308           
1 53061U 22077U   26169.74986444 -.00001283  00000+0 -84932-4 0  9998
2 53061  97.3466 348.6530 0001983  87.8310 272.3144 15.05656652216114
STARLINK-4311           
1 53062U 22077V   26169.05761259 -.00003659  00000+0 -24982-3 0  9995
2 53062  97.3476 348.0652 0001093 106.5730 253.5618 15.05641561216011
STARLINK-4307           
1 53063U 22077W   26169.77891661 -.00001379  00000+0 -91645-4 0  9994
2 53063  97.3466 349.7523 0001299  88.0574 272.0802 15.05652984 87775
