OBJECT_NAME,OBJECT_ID,EPOCH,MEAN_MOTION,ECCENTRICITY,INCLINATION,RA_OF_ASC_NODE,ARG_OF_PERICENTER,MEAN_ANOMALY,EPHEMERIS_TYPE,CLASSIFICATION_TYPE,NORAD_CAT_ID,ELEMENT_SET_NO,REV_AT_EPOCH,BSTAR,MEAN_MOTION_DOT,MEAN_MOTION_DDOT
STARLINK-4143,2022-076AV,2026-06-18T18:44:33.642816,15.08818975,.00011079,53.1596,340.1962,93.1868,266.9250,0,U,53029,999,21838,.47415278E-4,.466E-5,0
STARLINK-4160,2022-076AW,2026-06-19T00:00:02.000160,15.14584635,.00011703,53.1589,349.3388,135.6429,155.1298,0,U,53030,999,580,.30250855E-2,.56625E-3,0
STARLINK-4137,2022-076AX,2026-06-18T18:28:39.603648,15.08837569,.00011541,53.1611,340.2475,71.3083,288.8034,0,U,53031,999,21838,.51287379E-4,.528E-5,0
STARLINK-4115,2022-076AY,2026-06-18T19:07:56.599104,15.09865257,.00013681,53.1598,350.1127,107.3601,252.7541,0,U,53032,999,21825,.73214997E-2,.121631E-2,0
STARLINK-4167,2022-076AZ,2026-06-18T18:33:57.144384,15.08830618,.00010905,53.1610,340.2289,85.6337,274.4779,0,U,53033,999,21838,.30537631E-4,.198E-5,0
STARLINK-4151,2022-076BA,2026-06-18T18:45:56.185056,15.08833194,.00011951,53.1609,340.2412,90.3131,269.7998,0,U,53034,999,21838,.31062737E-4,.206E-5,0
STARLINK-4157,2022-076BB,2026-06-18T18:23:21.541920,15.08831999,.00013433,53.1607,340.2633,85.6565,274.4580,0,U,53035,999,21838,-.7834883E-5,-.413E-5,0
STARLINK-4155,2022-076BC,2026-06-18T18:18:02.951424,15.08828887,.00012268,53.1602,340.2773,88.5627,271.5505,0,U,53036,999,21838,-.81039339E-4,-.1577E-4,0
STARLINK-4153,2022-076BD,2026-06-18T21:23:31.161696,15.08834954,.00014427,53.1592,339.7001,92.2840,267.8317,0,U,53037,999,21840,.32943406E-4,.236E-5,0
STARLINK-4156,2022-076BE,2026-06-18T18:07:26.791680,15.08834552,.00012823,53.1607,340.3125,90.8226,269.2912,0,U,53038,999,21838,.41310801E-4,.369E-5,0
STARLINK-4362,2022-077A,2026-06-18T11:05:06.194400,15.05657791,.0002249,97.3475,348.3436,103.7543,256.3935,0,U,53043,999,21607,-.6245E-4,-.958E-5,0
STARLINK-4350,2022-077C,2026-06-18T22:44:51.941760,15.05651663,.00013778,97.3452,349.9664,106.5994,253.5385,0,U,53045,999,21622,.73642E-7,-.56E-6,0
STARLINK-4331,2022-077D,2026-06-18T18:33:39.429792,15.05662562,.00016109,97.3490,349.8967,86.0671,274.0741,0,U,53046,999,21620,-.35543745E-4,-.57E-5,0
STARLINK-4352,2022-077E,2026-06-18T18:15:45.342144,15.05662919,.00017208,97.3452,348.6882,109.0962,251.0452,0,U,53047,999,21612,-.13440882E-3,-.1997E-4,0
STARLINK-4355,2022-077F,2026-06-18T22:24:55.870272,15.05654924,.00009913,97.3441,349.9823,101.7174,258.4165,0,U,53048,999,21621,.8101067E-5,.6E-6,0
STARLINK-4345,2022-077G,2026-06-18T21:43:07.048416,15.05654715,.00014163,97.3441,348.7918,92.6309,267.5080,0,U,53049,999,21613,-.13537504E-3,-.201E-4,0
STARLINK-4343,2022-077H,2026-06-18T22:56:50.975520,15.05651731,.00013606,97.3450,349.9470,96.4672,263.6710,0,U,53050,999,21621,.2461336E-4,.298E-5,0
STARLINK-4336,2022-077J,2026-06-18T22:03:03.106080,15.05663193,.00017537,97.3473,348.7656,75.4069,284.7353,0,U,53051,999,21613,.70244901E-4,.957E-5,0
STARLINK-4341,2022-077K,2026-06-18T18:35:41.226144,15.05657971,.0001338,97.3507,348.6656,108.7579,251.3794,0,U,53052,999,21611,-.44000528E-4,-.692E-5,0
STARLINK-4337,2022-077L,2026-06-18T18:47:38.876640,15.05655473,.00024616,97.3485,348.6344,86.0085,274.1424,0,U,53053,999,21611,.1245526E-3,.1741E-4,0
STARLINK-4339,2022-077M,2026-06-18T10:55:05.596032,15.05662501,.0001421,97.3475,349.5452,86.5121,273.6269,0,U,53054,999,21614,-.55426E-4,-.857E-5,0
STARLINK-4338,2022-077N,2026-06-18T22:48:50.821344,15.05653219,.00010212,97.3456,349.9287,88.1154,272.0190,0,U,53055,999,21621,.2751546E-5,-.17E-6,0
STARLINK-4314,2022-077P,2026-06-18T22:28:54.947712,15.05656172,.00017695,97.3456,349.9562,116.5570,243.5839,0,U,53056,999,21621,-.3726051E-5,-.111E-5,0
STARLINK-4252,2022-077Q,2026-06-18T23:04:49.698912,15.05649151,.00021059,97.3443,350.0590,105.2917,254.8544,0,U,53057,999,21622,.13979097E-4,.145E-5,0
STARLINK-4317,2022-077R,2026-06-18T11:01:05.539296,15.05701974,.0001633,97.3473,348.4552,78.5439,281.5972,0,U,53058,999,21608,-.23676E-3,-.3476E-4,0
STARLINK-4320,2022-077S,2026-06-18T18:07:46.888320,15.05652149,.00015188,97.3462,348.6479,128.2850,231.8514,0,U,53059,999,21611,-.51860072E-4,-.805E-5,0
STARLINK-4305,2022-077T,2026-06-18T18:43:39.412128,15.05664313,.00014927,97.3468,348.6283,81.1953,278.9444,0,U,53060,999,21611,-.60419427E-4,-.929E-5,0
STARLINK-4308,2022-077U,2026-06-18T17:59:48.287616,15.05656652,.00019837,97.3466,348.6530,87.8310,272.3144,0,U,53061,999,21611,-.84931554E-4,-.1283E-4,0
STARLINK-4311,2022-077V,2026-06-18T01:22:57.727776,15.05641561,.00010936,97.3476,348.0652,106.5730,253.5618,0,U,53062,999,21601,-.24981909E-3,-.3659E-4,0
STARLINK-4307,2022-077W,2026-06-18T18:41:38.395104,15.05652984,.00012993,97.3466,349.7523,88.0574,272.0802,0,U,53063,999,8777,-.91644975E-4,-.1379E-4,0
